{"type":"FeatureCollection","features":[{"type":"Feature","properties":{"name":"Punjab"},"geometry":{"type":"Polygon","coordinates":[[[75.2947,32.1489],[75.3084,32.1939],[75.3166,32.2107],[75.3486,32.242],[75.359,32.2617],[75.353,32.2844],[75.3269,32.3125],[75.2984,32.3324],[75.3271,32.34],[75.3904,32.3355],[75.4141,32.346],[75.4227,32.354],[75.4419,32.3598],[75.4444,32.3532],[75.442,32.3362],[75.4447,32.3303],[75.4807,32.3075],[75.5024,32.3006],[75.538,32.3452],[75.5733,32.3746],[75.612,32.3955],[75.6826,32.3998],[75.6983,32.406],[75.7294,32.4296],[75.7368,32.4559],[75.743,32.4644],[75.7977,32.4811],[75.818,32.4948],[75.8286,32.4979],[75.8474,32.5167],[75.8566,32.5146],[75.8663,32.5049],[75.9117,32.4314],[75.9126,32.4191],[75.8575,32.39],[75.7793,32.3366],[75.7427,32.2993],[75.7276,32.2879],[75.6927,32.2723],[75.6229,32.2585],[75.6134,32.2509],[75.6063,32.2259],[75.6085,32.21],[75.6146,32.1968],[75.6252,32.1909],[75.6323,32.191],[75.654,32.198],[75.6598,32.1953],[75.661,32.1888],[75.6562,32.1747],[75.6394,32.1468],[75.5822,32.0923],[75.5778,32.0837],[75.5809,32.0767],[75.6016,32.0689],[75.6624,32.0604],[75.6843,32.0531],[75.6998,32.0561],[75.7065,32.0498],[75.7529,32.0324],[75.8018,32.0056],[75.8612,31.9826],[75.8797,31.9724],[75.9275,31.9079],[75.9681,31.8411],[75.9683,31.8352],[75.9619,31.8316],[75.9349,31.8329],[75.9276,31.8299],[75.9226,31.8247],[75.9233,31.8063],[76.0705,31.5642],[76.1259,31.4305],[76.147,31.3544],[76.1585,31.3386],[76.1795,31.3185],[76.2011,31.307],[76.2231,31.3156],[76.2428,31.3181],[76.2611,31.3109],[76.2754,31.3104],[76.2878,31.3245],[76.2945,31.3475],[76.3011,31.3518],[76.3143,31.3499],[76.3196,31.3538],[76.3228,31.3642],[76.3169,31.4017],[76.3221,31.4128],[76.3496,31.4199],[76.3599,31.4303],[76.3736,31.4192],[76.4128,31.3551],[76.4335,31.3178],[76.4394,31.2997],[76.4528,31.2982],[76.4638,31.3071],[76.4694,31.308],[76.4917,31.2845],[76.4963,31.2831],[76.5033,31.2909],[76.5205,31.2892],[76.5316,31.2787],[76.5367,31.2599],[76.5422,31.2557],[76.5506,31.2598],[76.5611,31.2767],[76.5672,31.2805],[76.5768,31.2723],[76.5842,31.2599],[76.587,31.2498],[76.5823,31.2274],[76.6143,31.229],[76.6236,31.2265],[76.6284,31.2201],[76.6218,31.2083],[76.6065,31.1928],[76.6014,31.1775],[76.5998,31.1349],[76.6025,31.1272],[76.6217,31.1165],[76.6231,31.1073],[76.6116,31.0889],[76.6059,31.0726],[76.6076,31.0521],[76.6153,31.0301],[76.6452,30.9993],[76.7003,30.9619],[76.7218,30.9412],[76.7682,30.9076],[76.7778,30.8973],[76.8019,30.8562],[76.8287,30.8462],[76.8352,30.8359],[76.8347,30.8225],[76.8297,30.8088],[76.8146,30.7891],[76.7739,30.799],[76.7415,30.7965],[76.697,30.7763],[76.6937,30.7635],[76.6954,30.7559],[76.7018,30.7446],[76.7307,30.7232],[76.7806,30.6735],[76.7852,30.6723],[76.8003,30.6827],[76.8381,30.6788],[76.8513,30.6816],[76.8607,30.6452],[76.8866,30.6338],[76.8994,30.6048],[76.9015,30.5926],[76.8931,30.5438],[76.9098,30.5204],[76.9104,30.5142],[76.896,30.4866],[76.8971,30.4421],[76.907,30.3958],[76.9004,30.372],[76.891,30.3612],[76.8805,30.3583],[76.8692,30.3624],[76.86,30.3768],[76.8453,30.4175],[76.8388,30.4242],[76.8294,30.4271],[76.7865,30.4229],[76.7671,30.4306],[76.7529,30.4305],[76.7276,30.4201],[76.7214,30.4106],[76.7171,30.3768],[76.7223,30.3716],[76.739,30.3666],[76.7402,30.3629],[76.7297,30.3496],[76.6499,30.2968],[76.6056,30.2744],[76.5646,30.2619],[76.5391,30.2451],[76.5331,30.2346],[76.5354,30.225],[76.5453,30.2178],[76.5611,30.2248],[76.5824,30.2473],[76.5908,30.2467],[76.5976,30.2402],[76.6053,30.2215],[76.6152,30.2142],[76.6334,30.2084],[76.6415,30.198],[76.6387,30.1821],[76.6301,30.1669],[76.6294,30.1476],[76.6248,30.1428],[76.5898,30.124],[76.5314,30.084],[76.4971,30.0852],[76.4546,30.1016],[76.4375,30.1243],[76.4296,30.1404],[76.4193,30.1771],[76.4093,30.1859],[76.3945,30.1846],[76.3878,30.18],[76.3862,30.1717],[76.394,30.1494],[76.3832,30.1257],[76.3735,30.117],[76.3636,30.1184],[76.3389,30.1412],[76.3281,30.1388],[76.3299,30.1168],[76.3172,30.1066],[76.2996,30.1069],[76.2667,30.1137],[76.2288,30.1387],[76.2207,30.1398],[76.2058,30.131],[76.2014,30.1256],[76.2058,30.113],[76.2172,30.1052],[76.2448,30.0964],[76.2527,30.0886],[76.2463,30.0849],[76.2246,30.0817],[76.2166,30.0752],[76.2219,30.0464],[76.2033,30.0217],[76.1837,29.9736],[76.177,29.9455],[76.181,29.9281],[76.1933,29.9011],[76.219,29.8855],[76.2263,29.8782],[76.2256,29.8691],[76.2139,29.8587],[76.1841,29.8454],[76.1473,29.8233],[76.1258,29.8185],[76.0844,29.8021],[76.0439,29.7582],[76.0318,29.7548],[76.004,29.7565],[75.9569,29.7386],[75.9399,29.7385],[75.9081,29.7482],[75.8867,29.7492],[75.8731,29.7641],[75.8519,29.805],[75.8298,29.8211],[75.797,29.8302],[75.786,29.831],[75.7592,29.8237],[75.7275,29.8104],[75.7202,29.8026],[75.7175,29.7943],[75.7177,29.778],[75.7109,29.7712],[75.6986,29.769],[75.6632,29.7753],[75.6044,29.7647],[75.5754,29.7695],[75.5395,29.7875],[75.5112,29.7878],[75.4525,29.8092],[75.4458,29.8062],[75.4088,29.7614],[75.3767,29.7129],[75.3453,29.687],[75.3428,29.6628],[75.3215,29.6626],[75.3116,29.6562],[75.2967,29.634],[75.2906,29.6215],[75.2899,29.6115],[75.3035,29.5892],[75.3018,29.5805],[75.2953,29.5749],[75.268,29.5696],[75.2486,29.5598],[75.2346,29.5618],[75.2179,29.6147],[75.1903,29.6445],[75.1893,29.6483],[75.194,29.656],[75.1925,29.6633],[75.1745,29.6799],[75.1721,29.6882],[75.2071,29.7076],[75.2048,29.7341],[75.2079,29.7468],[75.2324,29.7465],[75.2382,29.7488],[75.2383,29.7519],[75.2309,29.7658],[75.2036,29.8003],[75.1932,29.8327],[75.1797,29.8332],[75.1601,29.8243],[75.1551,29.8171],[75.1513,29.7964],[75.1477,29.7928],[75.1287,29.8107],[75.1052,29.8214],[75.1003,29.8269],[75.0982,29.834],[75.1007,29.8556],[75.0926,29.8693],[75.1044,29.8853],[75.1066,29.9104],[75.1021,29.9238],[75.0953,29.9278],[75.0818,29.9199],[75.0764,29.8961],[75.0678,29.8884],[75.0195,29.8756],[74.9957,29.873],[74.9413,29.9097],[74.9313,29.9366],[74.9187,29.9484],[74.9035,29.9548],[74.8415,29.9656],[74.8234,29.985],[74.8162,29.9863],[74.7673,29.9747],[74.726,29.9727],[74.7107,29.9684],[74.6722,29.9434],[74.6507,29.9141],[74.6327,29.9148],[74.5778,29.9338],[74.5165,29.9472],[74.3856,29.9631],[74.2906,29.9625],[73.9159,29.9799],[73.8871,29.9842],[73.8846,30.0],[73.8985,30.0349],[73.9697,30.1374],[73.9771,30.1781],[73.9704,30.1963],[73.9468,30.2041],[73.9489,30.2173],[73.9346,30.261],[73.9119,30.3038],[73.8916,30.3298],[73.8423,30.353],[73.8517,30.3727],[73.8677,30.3874],[73.8876,30.3965],[73.9061,30.3948],[73.8999,30.4221],[73.9167,30.4172],[73.9293,30.4191],[73.9391,30.4261],[74.0044,30.5089],[74.0441,30.5187],[74.0575,30.5314],[74.0615,30.5556],[74.0571,30.5916],[74.0674,30.6105],[74.0959,30.6371],[74.1115,30.6462],[74.1327,30.6555],[74.1557,30.6596],[74.1637,30.6649],[74.1701,30.6872],[74.1847,30.6968],[74.1912,30.717],[74.2151,30.7375],[74.2357,30.7641],[74.2667,30.7884],[74.2567,30.8153],[74.2602,30.8194],[74.2799,30.8247],[74.3002,30.8382],[74.3114,30.8559],[74.304,30.874],[74.3192,30.8934],[74.3298,30.8996],[74.3425,30.9019],[74.4013,30.8931],[74.4091,30.901],[74.4134,30.9151],[74.4243,30.9323],[74.4416,30.9462],[74.4585,30.9534],[74.4995,30.9565],[74.5193,30.9625],[74.5641,31.0044],[74.5643,31.025],[74.5795,31.0427],[74.601,31.0566],[74.6588,31.0838],[74.632,31.1075],[74.617,31.1153],[74.5969,31.1158],[74.5531,31.109],[74.5368,31.1152],[74.5149,31.1418],[74.5064,31.1754],[74.5091,31.1957],[74.5251,31.2354],[74.5253,31.2802],[74.5322,31.3032],[74.5716,31.3892],[74.6119,31.4402],[74.6172,31.4589],[74.6146,31.4778],[74.5845,31.5175],[74.5556,31.6122],[74.4995,31.6999],[74.4894,31.7112],[74.5033,31.7306],[74.5162,31.7374],[74.523,31.7585],[74.5351,31.7711],[74.5408,31.8109],[74.5504,31.827],[74.5656,31.8405],[74.6411,31.8906],[74.6572,31.8957],[74.67,31.9042],[74.6984,31.9502],[74.763,31.939],[74.7837,31.9429],[74.8025,31.9689],[74.8113,32.0037],[74.8286,32.0254],[74.8732,32.0117],[74.8891,32.0289],[74.9088,32.0319],[74.9314,32.0298],[74.9557,32.0322],[74.9679,32.0379],[74.9862,32.0632],[74.9956,32.0674],[75.0302,32.0664],[75.0226,32.0947],[75.0408,32.098],[75.1021,32.0781],[75.119,32.081],[75.1384,32.0935],[75.1741,32.0868],[75.1731,32.1097],[75.1958,32.1286],[75.2499,32.1489],[75.2633,32.1509],[75.2947,32.1489]]]}},{"type":"Feature","properties":{"name":"Delhi"},"geometry":{"type":"Polygon","coordinates":[[[77.2008,28.8768],[77.2167,28.8435],[77.2063,28.8219],[77.22,28.8051],[77.2272,28.7836],[77.3069,28.7206],[77.3131,28.7073],[77.3189,28.681],[77.3338,28.6444],[77.3375,28.6262],[77.3313,28.6135],[77.3051,28.5905],[77.2978,28.5694],[77.3274,28.5197],[77.2697,28.5103],[77.2413,28.4975],[77.2262,28.4844],[77.2227,28.4774],[77.2379,28.4585],[77.2399,28.4475],[77.2252,28.4376],[77.1936,28.4326],[77.1524,28.446],[77.1005,28.4756],[77.0894,28.4897],[77.0792,28.5177],[77.0709,28.5286],[77.0034,28.5589],[76.9912,28.558],[76.9853,28.5496],[76.985,28.5377],[76.9776,28.5346],[76.9073,28.5281],[76.8727,28.5194],[76.8675,28.5388],[76.835,28.5712],[76.8337,28.5789],[76.8369,28.5872],[76.8578,28.6055],[76.8723,28.6282],[76.9104,28.6368],[76.916,28.6422],[76.9223,28.6709],[76.9396,28.6848],[76.9473,28.6962],[76.9364,28.7251],[76.934,28.7919],[76.9365,28.8147],[76.9436,28.8263],[76.9544,28.8355],[76.9786,28.8472],[77.0036,28.8544],[77.0362,28.8533],[77.0544,28.8666],[77.068,28.8821],[77.1552,28.8616],[77.2008,28.8768]]]}},{"type":"Feature","properties":{"name":"Chandigarh"},"geometry":{"type":"Polygon","coordinates":[[[76.7739,30.799],[76.8146,30.7891],[76.8117,30.7777],[76.8133,30.7703],[76.8262,30.743],[76.8188,30.7032],[76.8273,30.6807],[76.8003,30.6827],[76.7852,30.6723],[76.7806,30.6735],[76.7307,30.7232],[76.6981,30.7493],[76.6944,30.7715],[76.7038,30.7814],[76.7415,30.7965],[76.7739,30.799]]]}},{"type":"Feature","properties":{"name":"Haryana"},"geometry":{"type":"Polygon","coordinates":[[[76.8101,30.9343],[76.8205,30.9294],[76.829,30.9119],[76.847,30.8987],[76.8621,30.8967],[76.8897,30.9017],[76.9057,30.8993],[76.9339,30.8704],[76.9489,30.8295],[76.9566,30.8208],[76.9866,30.8083],[76.9946,30.802],[77.0015,30.7773],[77.0127,30.7705],[77.0433,30.7605],[77.0869,30.7382],[77.1151,30.7221],[77.126,30.7114],[77.1484,30.679],[77.1503,30.664],[77.1462,30.6375],[77.1482,30.6098],[77.1453,30.5959],[77.1301,30.5687],[77.1341,30.5544],[77.1478,30.5387],[77.2013,30.5002],[77.2027,30.4878],[77.2081,30.477],[77.2144,30.4756],[77.241,30.4893],[77.3034,30.4603],[77.3591,30.4498],[77.3706,30.4357],[77.3805,30.4293],[77.397,30.43],[77.4447,30.4543],[77.452,30.4548],[77.4539,30.4487],[77.4334,30.4255],[77.4344,30.4212],[77.4418,30.4181],[77.4613,30.4173],[77.497,30.4246],[77.5133,30.4249],[77.5385,30.4038],[77.5851,30.3829],[77.588,30.3704],[77.5851,30.3252],[77.5701,30.2782],[77.5514,30.2614],[77.5094,30.2324],[77.4443,30.1737],[77.4143,30.1524],[77.4057,30.1416],[77.4033,30.1128],[77.3701,30.0964],[77.339,30.0697],[77.3233,30.0644],[77.3179,30.0404],[77.301,30.037],[77.2847,30.0381],[77.2801,30.0329],[77.2773,30.0176],[77.2299,29.9766],[77.221,29.9607],[77.2097,29.9288],[77.1804,29.8043],[77.1618,29.7712],[77.1405,29.7697],[77.1339,29.7644],[77.1323,29.7558],[77.1414,29.7333],[77.1375,29.7228],[77.1066,29.7023],[77.1139,29.6822],[77.0878,29.6585],[77.0936,29.6409],[77.0859,29.624],[77.0998,29.589],[77.0933,29.5811],[77.0647,29.5695],[77.0582,29.5555],[77.0724,29.5279],[77.0687,29.503],[77.0656,29.5037],[77.0775,29.4922],[77.1052,29.4954],[77.1203,29.4838],[77.0727,29.4401],[77.0656,29.4248],[77.1306,29.4264],[77.1482,29.4149],[77.1498,29.4034],[77.1339,29.3802],[77.1329,29.3722],[77.1339,29.3426],[77.1501,29.3133],[77.1307,29.2806],[77.1414,29.1303],[77.1339,29.1164],[77.1358,29.1085],[77.1482,29.0996],[77.1694,29.0365],[77.1957,28.9976],[77.1898,28.9882],[77.1776,28.9806],[77.1755,28.9631],[77.2097,28.9351],[77.2207,28.9144],[77.2199,28.906],[77.2008,28.8768],[77.1552,28.8616],[77.068,28.8821],[77.0544,28.8666],[77.0362,28.8533],[77.0036,28.8544],[76.9786,28.8472],[76.9544,28.8355],[76.9436,28.8263],[76.9365,28.8147],[76.934,28.7919],[76.9364,28.7251],[76.9473,28.6962],[76.9396,28.6848],[76.9223,28.6709],[76.916,28.6422],[76.9104,28.6368],[76.8723,28.6282],[76.8578,28.6055],[76.8369,28.5872],[76.8337,28.5789],[76.835,28.5712],[76.8675,28.5388],[76.8727,28.5194],[76.9073,28.5281],[76.9776,28.5346],[76.985,28.5377],[76.9853,28.5496],[76.9912,28.558],[77.0034,28.5589],[77.0709,28.5286],[77.0792,28.5177],[77.0894,28.4897],[77.1005,28.4756],[77.1524,28.446],[77.1936,28.4326],[77.2252,28.4376],[77.2399,28.4475],[77.2379,28.4585],[77.2227,28.4774],[77.2262,28.4844],[77.2413,28.4975],[77.2697,28.5103],[77.3274,28.5197],[77.3435,28.4983],[77.3528,28.4919],[77.3769,28.4841],[77.3772,28.4553],[77.4076,28.469],[77.4155,28.465],[77.4282,28.4307],[77.4387,28.4287],[77.4567,28.4346],[77.4658,28.4343],[77.4697,28.4249],[77.4682,28.3967],[77.4757,28.3913],[77.497,28.3933],[77.4721,28.3404],[77.4665,28.3152],[77.4879,28.299],[77.4908,28.2635],[77.5036,28.2567],[77.5289,28.2535],[77.5387,28.2431],[77.5283,28.2378],[77.5207,28.2172],[77.497,28.2089],[77.5016,28.1967],[77.5286,28.1929],[77.5387,28.181],[77.5072,28.1702],[77.4949,28.1518],[77.4958,28.126],[77.5038,28.0929],[77.4697,28.1127],[77.4764,28.0715],[77.4681,28.0468],[77.5038,28.0202],[77.5265,27.9745],[77.5293,27.9525],[77.5082,27.9433],[77.4888,27.92],[77.4798,27.898],[77.4699,27.8881],[77.4592,27.885],[77.4356,27.8923],[77.4245,27.8908],[77.3902,27.8607],[77.353,27.8538],[77.3335,27.8417],[77.3133,27.8361],[77.2807,27.8094],[77.2528,27.8141],[77.2337,27.7933],[77.2234,27.796],[77.2057,27.8175],[77.1992,27.8162],[77.1934,27.8028],[77.1881,27.7983],[77.1775,27.7992],[77.1646,27.8174],[77.158,27.817],[77.1429,27.7999],[77.1338,27.7942],[77.1172,27.7931],[77.0659,27.8101],[77.0525,27.8113],[77.0408,27.8073],[77.0318,27.7918],[77.032,27.7814],[77.0379,27.7736],[77.0683,27.7607],[77.076,27.754],[77.0778,27.7462],[77.0717,27.7411],[77.02,27.7362],[77.0059,27.7301],[76.9937,27.7169],[76.9813,27.6891],[76.973,27.6793],[76.9406,27.6803],[76.9105,27.6704],[76.8957,27.6786],[76.8901,27.6897],[76.8981,27.6995],[76.9194,27.7076],[76.9009,27.7344],[76.9009,27.7441],[76.9154,27.8153],[76.9406,27.8521],[76.9436,27.8652],[76.9398,27.9005],[76.9427,27.9235],[76.9337,27.9596],[76.9374,27.9807],[76.9251,28.0161],[76.9204,28.0516],[76.9406,28.123],[76.9415,28.1353],[76.9346,28.157],[76.9253,28.1664],[76.8869,28.194],[76.8566,28.229],[76.8427,28.2339],[76.8251,28.2309],[76.8039,28.2191],[76.7896,28.2026],[76.783,28.1867],[76.7581,28.1597],[76.6935,28.1204],[76.6749,28.1039],[76.6597,28.0963],[76.6468,28.0855],[76.6424,28.0678],[76.658,28.0291],[76.658,28.017],[76.6147,28.0091],[76.5905,28.001],[76.5595,27.9713],[76.5531,27.9712],[76.539,27.9853],[76.5218,28.0383],[76.5101,28.0431],[76.4868,28.0436],[76.4499,28.0593],[76.4456,28.0647],[76.4468,28.0703],[76.4527,28.0743],[76.4718,28.0797],[76.4765,28.0847],[76.4465,28.1041],[76.4417,28.1105],[76.4416,28.1221],[76.4519,28.1226],[76.472,28.1164],[76.483,28.1174],[76.4788,28.1289],[76.4535,28.1628],[76.4448,28.1677],[76.4324,28.1682],[76.368,28.1564],[76.3533,28.1658],[76.3386,28.1891],[76.3088,28.201],[76.3026,28.1992],[76.2973,28.1924],[76.2995,28.1764],[76.314,28.1599],[76.3376,28.1465],[76.3407,28.1397],[76.334,28.1288],[76.3157,28.1253],[76.3044,28.1176],[76.3067,28.1084],[76.3128,28.1032],[76.3367,28.0935],[76.3438,28.0859],[76.3465,28.0758],[76.3432,28.0635],[76.3329,28.0518],[76.3047,28.0488],[76.2667,28.0775],[76.2538,28.0802],[76.2472,28.0798],[76.2249,28.069],[76.2082,28.0691],[76.1868,28.0745],[76.1752,28.0728],[76.1665,28.0651],[76.1596,28.0443],[76.1578,28.0197],[76.1791,27.9576],[76.1801,27.9096],[76.1859,27.8983],[76.2014,27.8856],[76.208,27.8545],[76.215,27.8415],[76.2091,27.8274],[76.1791,27.8077],[76.1432,27.831],[76.1203,27.8519],[76.0922,27.8543],[75.9999,27.8427],[75.9875,27.8479],[75.9802,27.8561],[75.9733,27.8886],[75.9634,27.9006],[75.9315,27.9181],[75.9264,27.9376],[75.9319,27.9535],[75.9357,27.9557],[75.9587,27.9524],[75.968,27.9546],[75.9861,27.9706],[75.9873,27.9777],[75.982,27.988],[75.9662,28.0013],[75.9829,28.0202],[75.9928,28.0507],[76.0116,28.0658],[76.0266,28.083],[76.0308,28.0922],[76.03,28.1021],[76.0226,28.1086],[76.0079,28.1084],[75.9855,28.0869],[75.9793,28.085],[75.9486,28.1031],[75.9414,28.1177],[75.9461,28.1281],[75.9525,28.1338],[76.001,28.1546],[76.0259,28.1851],[76.0325,28.1878],[76.0393,28.1854],[76.0637,28.1621],[76.0739,28.1586],[76.0807,28.1636],[76.0814,28.1746],[76.0708,28.1957],[76.0479,28.2214],[76.0393,28.2419],[76.0262,28.2622],[75.9578,28.3435],[75.8871,28.4038],[75.8341,28.4194],[75.8182,28.4308],[75.7996,28.4329],[75.7819,28.4283],[75.7729,28.4325],[75.7687,28.4454],[75.7744,28.4631],[75.7731,28.4698],[75.6986,28.5206],[75.6725,28.5552],[75.6493,28.5751],[75.5936,28.6427],[75.58,28.6683],[75.55,28.7541],[75.5301,28.7925],[75.5264,28.8044],[75.528,28.8202],[75.5252,28.8345],[75.5072,28.8609],[75.486,28.9268],[75.4894,28.9394],[75.5162,28.9575],[75.5209,28.9665],[75.5187,28.9888],[75.5104,29.0005],[75.4607,29.0178],[75.4521,29.0239],[75.4066,29.0831],[75.3929,29.106],[75.3936,29.1363],[75.3814,29.1536],[75.3763,29.1701],[75.3808,29.1805],[75.4057,29.1876],[75.41,29.2013],[75.407,29.2135],[75.3945,29.2339],[75.3915,29.2527],[75.3881,29.2576],[75.3811,29.2585],[75.3643,29.252],[75.3434,29.235],[75.3382,29.2345],[75.3293,29.2398],[75.3231,29.2538],[75.3311,29.2898],[75.3284,29.2962],[75.3138,29.2989],[75.277,29.2822],[75.2678,29.2644],[75.2497,29.2564],[75.2141,29.2537],[75.1816,29.2733],[75.1742,29.2722],[75.1502,29.2526],[75.13,29.2495],[75.1066,29.2382],[75.0796,29.2363],[75.0649,29.2467],[75.0553,29.2684],[75.0421,29.2857],[75.0294,29.2906],[75.0177,29.2901],[74.9933,29.2796],[74.9696,29.2843],[74.9561,29.3001],[74.9445,29.3219],[74.931,29.3591],[74.9255,29.366],[74.8978,29.3827],[74.8312,29.4038],[74.8088,29.3981],[74.7768,29.3722],[74.7586,29.3643],[74.7094,29.3711],[74.6559,29.366],[74.645,29.3587],[74.6363,29.3339],[74.6314,29.3314],[74.6128,29.3328],[74.5989,29.3468],[74.5896,29.3668],[74.5664,29.3951],[74.5556,29.4163],[74.5371,29.4414],[74.5426,29.4603],[74.5505,29.4654],[74.5949,29.4676],[74.6021,29.4704],[74.6101,29.4878],[74.6138,29.5202],[74.6119,29.5307],[74.5854,29.5612],[74.5785,29.573],[74.5748,29.5897],[74.5834,29.6743],[74.6027,29.7264],[74.6062,29.7423],[74.6048,29.755],[74.5978,29.7653],[74.5843,29.7701],[74.5651,29.7563],[74.5407,29.7543],[74.5153,29.7391],[74.4983,29.7362],[74.468,29.7444],[74.4617,29.7518],[74.4594,29.7631],[74.4665,29.7989],[74.4819,29.8235],[74.5247,29.8408],[74.5345,29.8465],[74.547,29.8608],[74.5497,29.8695],[74.5448,29.888],[74.5262,29.9018],[74.5143,29.9154],[74.5165,29.9472],[74.5778,29.9338],[74.6327,29.9148],[74.6507,29.9141],[74.6722,29.9434],[74.7107,29.9684],[74.726,29.9727],[74.7673,29.9747],[74.8162,29.9863],[74.8234,29.985],[74.8415,29.9656],[74.9035,29.9548],[74.9187,29.9484],[74.9313,29.9366],[74.9413,29.9097],[74.9957,29.873],[75.0195,29.8756],[75.0678,29.8884],[75.0764,29.8961],[75.0818,29.9199],[75.0858,29.9243],[75.0953,29.9278],[75.1021,29.9238],[75.1056,29.9181],[75.1061,29.8929],[75.1018,29.8796],[75.0926,29.8693],[75.1007,29.8556],[75.0982,29.834],[75.1003,29.8269],[75.1052,29.8214],[75.1287,29.8107],[75.1448,29.7939],[75.1477,29.7928],[75.1513,29.7964],[75.1551,29.8171],[75.1601,29.8243],[75.1797,29.8332],[75.1932,29.8327],[75.2036,29.8003],[75.2309,29.7658],[75.2382,29.7488],[75.2272,29.746],[75.2079,29.7468],[75.2048,29.7341],[75.2071,29.7076],[75.1996,29.7013],[75.1743,29.6901],[75.1723,29.6849],[75.1925,29.6633],[75.194,29.656],[75.1893,29.6483],[75.1903,29.6445],[75.2179,29.6147],[75.2346,29.5618],[75.2486,29.5598],[75.268,29.5696],[75.2953,29.5749],[75.3018,29.5805],[75.3035,29.5892],[75.2899,29.6115],[75.2906,29.6215],[75.2967,29.634],[75.3116,29.6562],[75.3215,29.6626],[75.3428,29.6628],[75.3453,29.687],[75.3767,29.7129],[75.4088,29.7614],[75.4458,29.8062],[75.4525,29.8092],[75.5112,29.7878],[75.5395,29.7875],[75.5754,29.7695],[75.6044,29.7647],[75.6632,29.7753],[75.6986,29.769],[75.7109,29.7712],[75.7177,29.778],[75.7175,29.7943],[75.7202,29.8026],[75.7275,29.8104],[75.7592,29.8237],[75.786,29.831],[75.797,29.8302],[75.8298,29.8211],[75.8519,29.805],[75.8731,29.7641],[75.8867,29.7492],[75.9081,29.7482],[75.9399,29.7385],[75.9569,29.7386],[76.004,29.7565],[76.0318,29.7548],[76.0439,29.7582],[76.0844,29.8021],[76.1258,29.8185],[76.1473,29.8233],[76.1841,29.8454],[76.2139,29.8587],[76.2256,29.8691],[76.2263,29.8782],[76.219,29.8855],[76.1933,29.9011],[76.181,29.9281],[76.177,29.9455],[76.1837,29.9736],[76.2033,30.0217],[76.2219,30.0464],[76.2166,30.0752],[76.2246,30.0817],[76.2463,30.0849],[76.2527,30.0886],[76.2448,30.0964],[76.2172,30.1052],[76.2058,30.113],[76.2014,30.1256],[76.2139,30.1375],[76.2288,30.1387],[76.2667,30.1137],[76.3081,30.1059],[76.3172,30.1066],[76.3268,30.1119],[76.3299,30.1168],[76.3281,30.1388],[76.3389,30.1412],[76.3636,30.1184],[76.3735,30.117],[76.3832,30.1257],[76.394,30.1494],[76.3862,30.1717],[76.3878,30.18],[76.3945,30.1846],[76.4093,30.1859],[76.4193,30.1771],[76.4296,30.1404],[76.4375,30.1243],[76.4546,30.1016],[76.4971,30.0852],[76.5314,30.084],[76.5898,30.124],[76.6248,30.1428],[76.6294,30.1476],[76.6301,30.1669],[76.6387,30.1821],[76.6415,30.198],[76.6334,30.2084],[76.6152,30.2142],[76.6053,30.2215],[76.5976,30.2402],[76.5908,30.2467],[76.5824,30.2473],[76.5611,30.2248],[76.5453,30.2178],[76.5354,30.225],[76.5331,30.2346],[76.5391,30.2451],[76.5646,30.2619],[76.6056,30.2744],[76.6499,30.2968],[76.7297,30.3496],[76.7402,30.3629],[76.739,30.3666],[76.719,30.3734],[76.7164,30.3812],[76.7214,30.4106],[76.7276,30.4201],[76.7529,30.4305],[76.7671,30.4306],[76.7865,30.4229],[76.8294,30.4271],[76.8388,30.4242],[76.8453,30.4175],[76.86,30.3768],[76.8692,30.3624],[76.8805,30.3583],[76.891,30.3612],[76.9004,30.372],[76.907,30.3958],[76.8971,30.4421],[76.896,30.4866],[76.9104,30.5142],[76.9098,30.5204],[76.8931,30.5438],[76.9015,30.5988],[76.8866,30.6338],[76.8607,30.6452],[76.8513,30.6816],[76.8381,30.6788],[76.8273,30.6807],[76.8188,30.7032],[76.8262,30.743],[76.8117,30.7777],[76.8146,30.7891],[76.8297,30.8088],[76.8347,30.8225],[76.8352,30.8359],[76.8287,30.8462],[76.8019,30.8562],[76.7778,30.8973],[76.7682,30.9076],[76.7963,30.9303],[76.8101,30.9343]]]}}]}