{"type":"FeatureCollection","attribution":"Natural Earth (public domain)","features":[{"type":"Feature","properties":{"name":"Uttarakhand","focus":false},"geometry":{"type":"Polygon","coordinates":[[[80.2,29.1212],[80.1326,29.1102],[80.0994,28.9773],[80.0405,28.9328],[80.0364,28.837],[80.0731,28.8209],[80.0555,28.7791],[80.0006,28.7373],[79.9348,28.7476],[79.9315,28.7822],[79.8957,28.7752],[79.887,28.818],[79.8341,28.8058],[79.841,28.8553],[79.8126,28.8769],[79.7433,28.8852],[79.6994,28.8504],[79.6328,28.8633],[79.6002,28.849],[79.5665,28.8793],[79.5262,28.8784],[79.4437,28.8496],[79.4167,28.9218],[79.3712,28.9699],[79.2964,28.9716],[79.1706,29.0511],[79.1304,29.1153],[79.0559,29.1518],[78.9138,29.1056],[78.8983,29.1774],[78.8677,29.2152],[78.7141,29.2906],[78.7309,29.3201],[78.7968,29.3208],[78.8163,29.35],[78.86,29.3502],[78.9069,29.3884],[78.92,29.4222],[78.8064,29.4531],[78.6431,29.5376],[78.589,29.5801],[78.4787,29.722],[78.3617,29.7755],[78.2865,29.8923],[78.2177,29.9537],[78.1773,29.9526],[78.155,29.9254],[78.1978,29.7482],[78.1891,29.7067],[78.155,29.675],[78.1072,29.6545],[77.9665,29.7244],[77.8315,29.6599],[77.7838,29.7418],[77.7509,29.8602],[77.7464,29.9773],[77.835,30.1314],[77.9461,30.2283],[77.7506,30.3256],[77.6615,30.3949],[77.619,30.402],[77.5851,30.3829],[77.5653,30.4149],[77.5978,30.437],[77.6886,30.4552],[77.813,30.5211],[77.8138,30.5467],[77.7736,30.5576],[77.7433,30.6006],[77.7708,30.6351],[77.7349,30.7359],[77.7034,30.7736],[77.7417,30.8697],[77.7604,30.8839],[77.7872,30.8738],[77.7934,30.8957],[77.7891,30.9306],[77.7497,30.9799],[77.8021,30.9922],[77.7985,31.0414],[77.9411,31.1729],[78.0397,31.1722],[78.2974,31.2943],[78.4337,31.2681],[78.501,31.2196],[78.5817,31.2311],[78.7927,31.207],[78.8336,31.1468],[78.8695,31.122],[78.9932,31.1308],[78.9933,31.1634],[78.8926,31.2818],[78.921,31.2697],[79.078,31.4617],[79.1314,31.4384],[79.2383,31.3297],[79.262,31.2785],[79.2529,31.2454],[79.2883,31.2255],[79.3194,31.1423],[79.367,31.1116],[79.4016,31.0236],[79.4764,31.014],[79.5127,30.9662],[79.5778,30.9384],[79.6303,30.9625],[79.739,30.9792],[79.8335,30.9615],[79.9032,30.8902],[80.0286,30.8308],[80.0625,30.7848],[80.0922,30.7745],[80.1407,30.7932],[80.1693,30.7853],[80.2,30.7462],[80.2,30.6808],[80.1666,30.6744],[80.2,30.6253],[80.1798,30.5595],[80.2,30.5635],[80.2,29.1212]]]}},{"type":"Feature","properties":{"name":"Punjab","focus":true},"geometry":{"type":"Polygon","coordinates":[[[75.2981,32.1598],[75.3166,32.2107],[75.359,32.2617],[75.353,32.2844],[75.2984,32.3324],[75.3904,32.3355],[75.4419,32.3598],[75.4447,32.3303],[75.5024,32.3006],[75.5733,32.3746],[75.612,32.3955],[75.6983,32.406],[75.7294,32.4296],[75.743,32.4644],[75.8474,32.5167],[75.8663,32.5049],[75.9126,32.4191],[75.7276,32.2879],[75.6134,32.2509],[75.6146,32.1968],[75.661,32.1888],[75.5809,32.0767],[75.6998,32.0561],[75.8797,31.9724],[75.9681,31.8411],[75.9276,31.8299],[75.9233,31.8063],[76.0705,31.5642],[76.147,31.3544],[76.1795,31.3185],[76.2754,31.3104],[76.2945,31.3475],[76.3196,31.3538],[76.3221,31.4128],[76.3599,31.4303],[76.4394,31.2997],[76.4694,31.308],[76.4917,31.2845],[76.5205,31.2892],[76.5422,31.2557],[76.5672,31.2805],[76.5842,31.2599],[76.5823,31.2274],[76.6236,31.2265],[76.6014,31.1775],[76.5998,31.1349],[76.6231,31.1073],[76.6059,31.0726],[76.6153,31.0301],[76.8352,30.8359],[76.8146,30.7891],[76.7415,30.7965],[76.697,30.7763],[76.6954,30.7559],[76.7806,30.6735],[76.8513,30.6816],[76.8607,30.6452],[76.8866,30.6338],[76.8994,30.6048],[76.8931,30.5438],[76.9104,30.5142],[76.896,30.4866],[76.907,30.3958],[76.891,30.3612],[76.8692,30.3624],[76.8388,30.4242],[76.7529,30.4305],[76.7214,30.4106],[76.7171,30.3768],[76.7402,30.3629],[76.7297,30.3496],[76.5391,30.2451],[76.5453,30.2178],[76.5908,30.2467],[76.6415,30.198],[76.6248,30.1428],[76.5314,30.084],[76.4546,30.1016],[76.4093,30.1859],[76.3878,30.18],[76.394,30.1494],[76.3735,30.117],[76.3389,30.1412],[76.3172,30.1066],[76.2667,30.1137],[76.2288,30.1387],[76.2058,30.131],[76.2058,30.113],[76.2527,30.0886],[76.2166,30.0752],[76.2219,30.0464],[76.177,29.9455],[76.1933,29.9011],[76.2256,29.8691],[76.0844,29.8021],[76.0439,29.7582],[75.9569,29.7386],[75.8867,29.7492],[75.8519,29.805],[75.797,29.8302],[75.7275,29.8104],[75.7177,29.778],[75.6986,29.769],[75.6044,29.7647],[75.4525,29.8092],[75.3453,29.687],[75.3428,29.6628],[75.3215,29.6626],[75.2967,29.634],[75.3018,29.5805],[75.2486,29.5598],[75.2346,29.5618],[75.1721,29.6882],[75.2071,29.7076],[75.2079,29.7468],[75.2383,29.7519],[75.1932,29.8327],[75.1601,29.8243],[75.1477,29.7928],[75.1003,29.8269],[75.0926,29.8693],[75.1066,29.9104],[75.0953,29.9278],[75.0678,29.8884],[74.9957,29.873],[74.9413,29.9097],[74.9187,29.9484],[74.8415,29.9656],[74.8162,29.9863],[74.7107,29.9684],[74.6507,29.9141],[74.3856,29.9631],[73.8871,29.9842],[73.8985,30.0349],[73.9697,30.1374],[73.9771,30.1781],[73.9468,30.2041],[73.9119,30.3038],[73.8423,30.353],[73.8677,30.3874],[73.9061,30.3948],[73.8999,30.4221],[73.9391,30.4261],[74.0044,30.5089],[74.0575,30.5314],[74.0674,30.6105],[74.1637,30.6649],[74.1912,30.717],[74.2667,30.7884],[74.2567,30.8153],[74.3002,30.8382],[74.3192,30.8934],[74.4013,30.8931],[74.4416,30.9462],[74.5193,30.9625],[74.5641,31.0044],[74.5795,31.0427],[74.6588,31.0838],[74.617,31.1153],[74.5368,31.1152],[74.5064,31.1754],[74.5322,31.3032],[74.6172,31.4589],[74.5556,31.6122],[74.4894,31.7112],[74.5351,31.7711],[74.5504,31.827],[74.67,31.9042],[74.6984,31.9502],[74.7837,31.9429],[74.8286,32.0254],[74.8732,32.0117],[74.8891,32.0289],[74.9557,32.0322],[74.9862,32.0632],[75.0302,32.0664],[75.0226,32.0947],[75.0408,32.098],[75.1021,32.0781],[75.1384,32.0935],[75.1741,32.0868],[75.1731,32.1097],[75.1958,32.1286],[75.2981,32.1598]]]}},{"type":"Feature","properties":{"name":"Rajasthan","focus":false},"geometry":{"type":"Polygon","coordinates":[[[72.111,28.3176],[72.1776,28.3971],[72.2565,28.6456],[72.3546,28.7672],[72.9304,29.0477],[73.2329,29.5366],[73.3703,29.9273],[73.5578,30.0125],[73.7397,30.0485],[73.9444,30.1883],[73.9468,30.2041],[73.9704,30.1963],[73.9713,30.1419],[73.8985,30.0349],[73.8871,29.9842],[74.5165,29.9472],[74.5143,29.9154],[74.5448,29.888],[74.547,29.8608],[74.4819,29.8235],[74.4594,29.7631],[74.468,29.7444],[74.4983,29.7362],[74.5843,29.7701],[74.6048,29.755],[74.5748,29.5897],[74.6119,29.5307],[74.6101,29.4878],[74.5949,29.4676],[74.5505,29.4654],[74.5371,29.4414],[74.6128,29.3328],[74.6363,29.3339],[74.6559,29.366],[74.7586,29.3643],[74.8312,29.4038],[74.9255,29.366],[74.9696,29.2843],[75.0421,29.2857],[75.0796,29.2363],[75.1816,29.2733],[75.2141,29.2537],[75.2497,29.2564],[75.3138,29.2989],[75.3311,29.2898],[75.3231,29.2538],[75.3382,29.2345],[75.3881,29.2576],[75.41,29.2013],[75.3763,29.1701],[75.3929,29.106],[75.4521,29.0239],[75.5187,28.9888],[75.5162,28.9575],[75.486,28.9268],[75.5936,28.6427],[75.6986,28.5206],[75.7731,28.4698],[75.7729,28.4325],[75.8871,28.4038],[75.9578,28.3435],[76.0814,28.1746],[76.0739,28.1586],[76.0325,28.1878],[75.9414,28.1177],[75.9793,28.085],[76.0079,28.1084],[76.03,28.1021],[75.9662,28.0013],[75.9861,27.9706],[75.968,27.9546],[75.9357,27.9557],[75.9264,27.9376],[75.9733,27.8886],[75.9875,27.8479],[76.1203,27.8519],[76.1791,27.8077],[76.2091,27.8274],[76.2014,27.8856],[76.1801,27.9096],[76.1596,28.0443],[76.1752,28.0728],[76.2538,28.0802],[76.3047,28.0488],[76.3329,28.0518],[76.3438,28.0859],[76.3044,28.1176],[76.3407,28.1397],[76.2995,28.1764],[76.3026,28.1992],[76.3386,28.1891],[76.368,28.1564],[76.4535,28.1628],[76.483,28.1174],[76.4416,28.1221],[76.4765,28.0847],[76.4456,28.0647],[76.5218,28.0383],[76.539,27.9853],[76.5595,27.9713],[76.5905,28.001],[76.658,28.017],[76.6468,28.0855],[76.7581,28.1597],[76.8039,28.2191],[76.8497,28.2323],[76.9415,28.1353],[76.9204,28.0516],[76.9436,27.8652],[76.9009,27.7441],[76.9194,27.7076],[76.8914,27.6838],[76.9105,27.6704],[76.973,27.6793],[77.0059,27.7301],[77.0717,27.7411],[77.076,27.754],[77.032,27.7814],[77.0525,27.8113],[77.1172,27.7931],[77.158,27.817],[77.1881,27.7983],[77.2057,27.8175],[77.2299,27.7927],[77.2528,27.8141],[77.2807,27.8094],[77.2942,27.722],[77.3329,27.671],[77.3175,27.622],[77.3403,27.5984],[77.3401,27.5505],[77.4153,27.4593],[77.4425,27.3962],[77.6021,27.3295],[77.6105,27.2793],[77.6573,27.2027],[77.6041,27.1607],[77.5914,27.1307],[77.5134,27.1092],[77.4998,27.0892],[77.5507,27.0401],[77.619,27.03],[77.643,27.0466],[77.674,27.0063],[77.7074,27.0263],[77.7191,27.0029],[77.4233,26.8844],[77.3995,26.8555],[77.3979,26.7789],[77.4319,26.7812],[77.4721,26.8366],[77.5105,26.8333],[77.6414,26.8832],[77.7205,26.934],[77.8526,26.9029],[77.8791,26.915],[77.9766,26.9044],[78.0163,26.8667],[78.0232,26.9054],[78.0661,26.9123],[78.1069,26.9473],[78.1688,26.9489],[78.2465,26.9178],[78.1753,26.8735],[78.2001,26.8236],[78.169,26.8222],[78.165,26.7919],[78.1012,26.7951],[78.0794,26.6829],[78.0128,26.6956],[77.9028,26.664],[77.8807,26.6256],[77.8192,26.6051],[77.8315,26.5758],[77.8089,26.5593],[77.744,26.5362],[77.7151,26.506],[77.6168,26.483],[77.5144,26.4164],[77.4418,26.4133],[77.4152,26.3649],[77.3358,26.3611],[77.2881,26.3],[72.0,26.3],[72.0,28.2367],[72.111,28.3176]]]}},{"type":"Feature","properties":{"name":"Himachal Pradesh","focus":false},"geometry":{"type":"Polygon","coordinates":[[[78.381,32.528],[78.4522,32.4168],[78.4345,32.3838],[78.4627,32.2818],[78.458,32.2297],[78.5131,32.2076],[78.6493,32.0364],[78.7222,31.9946],[78.7446,31.9642],[78.6709,31.7705],[78.6956,31.7467],[78.6932,31.7185],[78.724,31.6733],[78.7581,31.6666],[78.8189,31.6074],[78.6995,31.51],[78.6954,31.4881],[78.7626,31.4451],[78.7409,31.3177],[78.7845,31.2883],[78.8926,31.2818],[78.9933,31.1634],[78.9932,31.1308],[78.8695,31.122],[78.8336,31.1468],[78.7927,31.207],[78.5817,31.2311],[78.501,31.2196],[78.4337,31.2681],[78.313,31.2945],[78.0397,31.1722],[77.9411,31.1729],[77.7985,31.0414],[77.8021,30.9922],[77.7497,30.9799],[77.7891,30.9306],[77.7934,30.8957],[77.7872,30.8738],[77.7519,30.8831],[77.7058,30.7915],[77.707,30.7594],[77.7349,30.7359],[77.7708,30.6351],[77.7433,30.6006],[77.7736,30.5576],[77.8138,30.5467],[77.813,30.5211],[77.665,30.446],[77.5759,30.4287],[77.5653,30.4149],[77.5838,30.3822],[77.5133,30.4249],[77.4344,30.4212],[77.452,30.4548],[77.3805,30.4293],[77.3591,30.4498],[77.241,30.4893],[77.2081,30.477],[77.2013,30.5002],[77.1341,30.5544],[77.1503,30.664],[77.126,30.7114],[77.0015,30.7773],[76.9057,30.8993],[76.847,30.8987],[76.8101,30.9343],[76.7682,30.9076],[76.6256,31.0166],[76.6057,31.0623],[76.6217,31.1165],[76.5998,31.1349],[76.6028,31.1857],[76.6284,31.2201],[76.5823,31.2274],[76.5842,31.2599],[76.5672,31.2805],[76.5422,31.2557],[76.5205,31.2892],[76.4917,31.2845],[76.4694,31.308],[76.4394,31.2997],[76.3599,31.4303],[76.3221,31.4128],[76.3196,31.3538],[76.2945,31.3475],[76.2754,31.3104],[76.1795,31.3185],[76.147,31.3544],[76.0705,31.5642],[75.9233,31.8063],[75.9276,31.8299],[75.9681,31.8411],[75.8797,31.9724],[75.6998,32.0561],[75.5778,32.0837],[75.661,32.1888],[75.6146,32.1968],[75.6134,32.2509],[75.7276,32.2879],[75.9126,32.4191],[75.8474,32.5167],[75.8659,32.5606],[75.9226,32.6173],[75.9247,32.652],[75.9014,32.7029],[75.9124,32.7619],[75.8117,32.8843],[75.8069,32.9237],[75.8586,32.9421],[75.9547,32.9014],[76.1008,33.013],[76.237,33.0635],[76.2943,33.1479],[76.3967,33.1977],[76.5424,33.2329],[76.6259,33.1893],[76.7545,33.1946],[76.9401,33.0343],[77.0885,32.9502],[77.3487,32.8672],[77.5535,32.9234],[77.6752,33.0004],[77.7211,33.0126],[77.8579,32.873],[77.9289,32.7624],[77.9385,32.6953],[78.0089,32.6103],[78.059,32.6183],[78.1146,32.6677],[78.2539,32.6979],[78.3143,32.7354],[78.3177,32.7647],[78.3666,32.7652],[78.3834,32.7144],[78.3747,32.6488],[78.3041,32.5962],[78.2704,32.5042],[78.2822,32.4807],[78.3134,32.4717],[78.381,32.528]]]}},{"type":"Feature","properties":{"name":"Jammu and Kashmir","focus":false},"geometry":{"type":"Polygon","coordinates":[[[74.725,32.4608],[74.6626,32.4984],[74.6296,32.5881],[74.656,32.6407],[74.6497,32.7231],[74.6823,32.7873],[74.6853,32.8312],[74.6536,32.8374],[74.6141,32.7704],[74.5738,32.7525],[74.5009,32.746],[74.4387,32.786],[74.3462,32.7669],[74.3065,32.8099],[74.3367,32.8701],[74.3113,32.9943],[74.1539,33.0402],[74.0985,33.1048],[74.0023,33.1777],[73.9885,33.2086],[74.0017,33.2702],[74.096,33.3285],[74.1578,33.4942],[74.1416,33.5494],[73.9767,33.6484],[73.9608,33.6923],[73.9707,33.7471],[74.0346,33.8286],[74.1423,33.8442],[74.2126,33.8784],[74.2625,33.9299],[74.2723,33.9621],[74.2597,33.9944],[74.2284,34.0129],[74.1184,34.0025],[74.045,34.0194],[73.9767,34.0046],[73.9162,34.0279],[73.8844,34.0842],[73.8933,34.1147],[73.9954,34.1764],[73.9972,34.2],[75.6634,34.1992],[75.6913,34.1637],[75.6995,34.1177],[75.7417,34.0664],[75.8796,33.9637],[76.0244,33.9821],[76.0733,33.922],[76.1664,33.8732],[76.2358,33.7288],[76.2461,33.5741],[76.488,33.5022],[76.6466,33.3521],[76.7398,33.1974],[76.6259,33.1893],[76.5424,33.2329],[76.3967,33.1977],[76.2943,33.1479],[76.237,33.0635],[76.1008,33.013],[75.9547,32.9014],[75.8696,32.94],[75.8146,32.9318],[75.8034,32.912],[75.8117,32.8843],[75.9093,32.7727],[75.9014,32.7029],[75.9247,32.652],[75.9226,32.6173],[75.8286,32.4979],[75.743,32.4644],[75.7294,32.4296],[75.6983,32.406],[75.612,32.3955],[75.5733,32.3746],[75.5024,32.3006],[75.4447,32.3303],[75.4419,32.3598],[75.3904,32.3355],[75.2984,32.3324],[75.1962,32.3973],[75.126,32.4117],[75.0237,32.4663],[74.907,32.4452],[74.8381,32.4749],[74.725,32.4608]]]}},{"type":"Feature","properties":{"name":"Uttar Pradesh","focus":false},"geometry":{"type":"Polygon","coordinates":[[[79.0284,26.3011],[79.0611,26.3494],[79.0397,26.3751],[79.0493,26.4407],[78.96,26.5967],[78.9358,26.6944],[78.9193,26.7078],[78.8613,26.7013],[78.7454,26.7892],[78.7241,26.7764],[78.7101,26.7989],[78.6932,26.7979],[78.5635,26.7585],[78.4616,26.7923],[78.4281,26.8225],[78.3849,26.8268],[78.3506,26.8585],[78.286,26.8548],[78.2549,26.8173],[78.2001,26.8236],[78.1726,26.8686],[78.2081,26.8822],[78.246,26.9229],[78.1518,26.9509],[78.1069,26.9473],[78.0661,26.9123],[78.0293,26.91],[78.0163,26.8667],[77.9766,26.9044],[77.8791,26.915],[77.8526,26.9029],[77.7205,26.934],[77.6414,26.8832],[77.5105,26.8333],[77.4721,26.8366],[77.4319,26.7812],[77.3958,26.7824],[77.3995,26.8555],[77.4233,26.8844],[77.6285,26.9732],[77.7,26.9887],[77.7192,27.0158],[77.7014,27.0253],[77.674,27.0063],[77.643,27.0466],[77.619,27.03],[77.5597,27.0368],[77.5034,27.0805],[77.5051,27.1049],[77.5914,27.1307],[77.6041,27.1607],[77.6573,27.2027],[77.6105,27.2793],[77.6021,27.3295],[77.5564,27.3385],[77.4341,27.4061],[77.4153,27.4593],[77.3401,27.5505],[77.3403,27.5984],[77.3183,27.6169],[77.3329,27.671],[77.2942,27.722],[77.2807,27.8094],[77.4245,27.8908],[77.4699,27.8881],[77.5293,27.9525],[77.5038,28.0202],[77.4681,28.0468],[77.4697,28.1127],[77.5038,28.0929],[77.4949,28.1518],[77.5387,28.181],[77.497,28.2089],[77.5387,28.2431],[77.4908,28.2635],[77.4879,28.299],[77.4665,28.3152],[77.497,28.3933],[77.4682,28.3967],[77.4658,28.4343],[77.4282,28.4307],[77.4155,28.465],[77.3772,28.4553],[77.3769,28.4841],[77.3435,28.4983],[77.2978,28.5694],[77.3357,28.6195],[77.3338,28.6444],[77.3069,28.7206],[77.2272,28.7836],[77.2063,28.8219],[77.2167,28.8435],[77.2008,28.8768],[77.2207,28.9144],[77.1755,28.9631],[77.1957,28.9976],[77.1339,29.1164],[77.1307,29.2806],[77.1501,29.3133],[77.1329,29.3722],[77.1482,29.4149],[77.0656,29.4248],[77.1203,29.4838],[77.0656,29.5037],[77.0724,29.5279],[77.0582,29.5555],[77.0998,29.589],[77.0878,29.6585],[77.1139,29.6822],[77.1066,29.7023],[77.1375,29.7228],[77.1339,29.7644],[77.1618,29.7712],[77.1804,29.8043],[77.2299,29.9766],[77.2847,30.0381],[77.3179,30.0404],[77.3233,30.0644],[77.4033,30.1128],[77.4143,30.1524],[77.5701,30.2782],[77.5851,30.3829],[77.619,30.402],[77.6615,30.3949],[77.7506,30.3256],[77.9461,30.2283],[77.835,30.1314],[77.7464,29.9773],[77.7509,29.8602],[77.7838,29.7418],[77.8315,29.6599],[77.9665,29.7244],[78.1072,29.6545],[78.155,29.675],[78.1891,29.7067],[78.1978,29.7482],[78.155,29.9254],[78.1773,29.9526],[78.2177,29.9537],[78.2865,29.8923],[78.3617,29.7755],[78.4787,29.722],[78.589,29.5801],[78.6431,29.5376],[78.8064,29.4531],[78.92,29.4222],[78.9069,29.3884],[78.86,29.3502],[78.8163,29.35],[78.7968,29.3208],[78.7309,29.3201],[78.7141,29.2906],[78.8677,29.2152],[78.8983,29.1774],[78.9138,29.1056],[79.0559,29.1518],[79.1304,29.1153],[79.1706,29.0511],[79.2964,28.9716],[79.3712,28.9699],[79.4167,28.9218],[79.4437,28.8496],[79.5665,28.8793],[79.5882,28.8491],[79.6328,28.8633],[79.6994,28.8504],[79.7256,28.8589],[79.7299,28.8796],[79.7636,28.8844],[79.8321,28.866],[79.8341,28.8058],[79.887,28.818],[79.8957,28.7752],[79.9315,28.7822],[79.9289,28.7577],[79.9536,28.7363],[80.028,28.7523],[80.0731,28.8209],[80.1142,28.8026],[80.1621,28.7533],[80.2,28.7444],[80.2,26.3],[79.0284,26.3011]]]}},{"type":"Feature","properties":{"name":"Delhi","focus":true},"geometry":{"type":"Polygon","coordinates":[[[77.2167,28.8435],[77.2063,28.8219],[77.2272,28.7836],[77.3069,28.7206],[77.3171,28.696],[77.3375,28.6262],[77.2978,28.5694],[77.3274,28.5197],[77.2413,28.4975],[77.2227,28.4774],[77.2399,28.4475],[77.1936,28.4326],[77.1005,28.4756],[77.0709,28.5286],[77.0034,28.5589],[76.9776,28.5346],[76.8727,28.5194],[76.8337,28.5789],[76.8723,28.6282],[76.916,28.6422],[76.9473,28.6962],[76.934,28.7919],[76.9436,28.8263],[76.9786,28.8472],[77.0362,28.8533],[77.068,28.8821],[77.1552,28.8616],[77.2008,28.8768],[77.2167,28.8435]]]}},{"type":"Feature","properties":{"name":"Chandigarh","focus":false},"geometry":{"type":"Polygon","coordinates":[[[76.8146,30.7891],[76.8273,30.6807],[76.7806,30.6735],[76.6954,30.7559],[76.697,30.7763],[76.7415,30.7965],[76.8146,30.7891]]]}},{"type":"Feature","properties":{"name":"Haryana","focus":true},"geometry":{"type":"Polygon","coordinates":[[[76.8164,30.9328],[76.847,30.8987],[76.9057,30.8993],[77.0015,30.7773],[77.126,30.7114],[77.1503,30.664],[77.1341,30.5544],[77.2013,30.5002],[77.2081,30.477],[77.241,30.4893],[77.3591,30.4498],[77.3805,30.4293],[77.452,30.4548],[77.4344,30.4212],[77.5133,30.4249],[77.588,30.3704],[77.5701,30.2782],[77.4143,30.1524],[77.4033,30.1128],[77.3233,30.0644],[77.3179,30.0404],[77.2847,30.0381],[77.2299,29.9766],[77.1804,29.8043],[77.1618,29.7712],[77.1339,29.7644],[77.1375,29.7228],[77.1066,29.7023],[77.1139,29.6822],[77.0878,29.6585],[77.0998,29.589],[77.0582,29.5555],[77.0724,29.5279],[77.0656,29.5037],[77.1203,29.4838],[77.0656,29.4248],[77.1482,29.4149],[77.1329,29.3722],[77.1501,29.3133],[77.1307,29.2806],[77.1339,29.1164],[77.1957,28.9976],[77.1755,28.9631],[77.2199,28.906],[77.2008,28.8768],[77.1552,28.8616],[77.068,28.8821],[77.0362,28.8533],[76.9544,28.8355],[76.934,28.7919],[76.9473,28.6962],[76.916,28.6422],[76.8723,28.6282],[76.8337,28.5789],[76.8727,28.5194],[76.9776,28.5346],[77.0034,28.5589],[77.0709,28.5286],[77.1005,28.4756],[77.1936,28.4326],[77.2399,28.4475],[77.2227,28.4774],[77.2413,28.4975],[77.3274,28.5197],[77.3769,28.4841],[77.3772,28.4553],[77.4076,28.469],[77.4282,28.4307],[77.4658,28.4343],[77.4682,28.3967],[77.497,28.3933],[77.4665,28.3152],[77.4879,28.299],[77.4908,28.2635],[77.5387,28.2431],[77.497,28.2089],[77.5387,28.181],[77.4949,28.1518],[77.5038,28.0929],[77.4697,28.1127],[77.4681,28.0468],[77.5038,28.0202],[77.5293,27.9525],[77.4699,27.8881],[77.4245,27.8908],[77.3902,27.8607],[77.3133,27.8361],[77.2807,27.8094],[77.2528,27.8141],[77.2337,27.7933],[77.2057,27.8175],[77.1881,27.7983],[77.158,27.817],[77.1172,27.7931],[77.0408,27.8073],[77.032,27.7814],[77.0778,27.7462],[77.0059,27.7301],[76.973,27.6793],[76.9105,27.6704],[76.8901,27.6897],[76.9194,27.7076],[76.9009,27.7441],[76.9436,27.8652],[76.9204,28.0516],[76.9415,28.1353],[76.9253,28.1664],[76.8427,28.2339],[76.8039,28.2191],[76.7581,28.1597],[76.6468,28.0855],[76.658,28.017],[76.5905,28.001],[76.5595,27.9713],[76.539,27.9853],[76.5218,28.0383],[76.4456,28.0647],[76.4765,28.0847],[76.4416,28.1221],[76.483,28.1174],[76.4535,28.1628],[76.368,28.1564],[76.3386,28.1891],[76.3026,28.1992],[76.2995,28.1764],[76.3407,28.1397],[76.3044,28.1176],[76.3438,28.0859],[76.3329,28.0518],[76.3047,28.0488],[76.2538,28.0802],[76.1752,28.0728],[76.1596,28.0443],[76.1801,27.9096],[76.2014,27.8856],[76.2091,27.8274],[76.1791,27.8077],[76.1203,27.8519],[75.9875,27.8479],[75.9733,27.8886],[75.9264,27.9376],[75.9357,27.9557],[75.968,27.9546],[75.9861,27.9706],[75.9662,28.0013],[76.03,28.1021],[76.0079,28.1084],[75.9793,28.085],[75.9414,28.1177],[76.0325,28.1878],[76.0739,28.1586],[76.0814,28.1746],[75.9578,28.3435],[75.8871,28.4038],[75.7729,28.4325],[75.7731,28.4698],[75.6986,28.5206],[75.5936,28.6427],[75.486,28.9268],[75.5162,28.9575],[75.5187,28.9888],[75.4521,29.0239],[75.3929,29.106],[75.3763,29.1701],[75.41,29.2013],[75.3881,29.2576],[75.3382,29.2345],[75.3231,29.2538],[75.3311,29.2898],[75.3138,29.2989],[75.2497,29.2564],[75.2141,29.2537],[75.1816,29.2733],[75.0796,29.2363],[75.0421,29.2857],[74.9696,29.2843],[74.9255,29.366],[74.8312,29.4038],[74.7586,29.3643],[74.6559,29.366],[74.6363,29.3339],[74.6128,29.3328],[74.5371,29.4414],[74.5505,29.4654],[74.5949,29.4676],[74.6101,29.4878],[74.6119,29.5307],[74.5748,29.5897],[74.6048,29.755],[74.5843,29.7701],[74.4983,29.7362],[74.468,29.7444],[74.4594,29.7631],[74.4819,29.8235],[74.547,29.8608],[74.5448,29.888],[74.5143,29.9154],[74.5165,29.9472],[74.6507,29.9141],[74.7107,29.9684],[74.8162,29.9863],[74.8415,29.9656],[74.9187,29.9484],[74.9413,29.9097],[74.9957,29.873],[75.0678,29.8884],[75.0858,29.9243],[75.1021,29.9238],[75.1003,29.8269],[75.1448,29.7939],[75.1601,29.8243],[75.1932,29.8327],[75.2382,29.7488],[75.2079,29.7468],[75.2071,29.7076],[75.1723,29.6849],[75.2346,29.5618],[75.3018,29.5805],[75.2967,29.634],[75.3215,29.6626],[75.3428,29.6628],[75.3453,29.687],[75.4525,29.8092],[75.6044,29.7647],[75.6986,29.769],[75.7177,29.778],[75.7275,29.8104],[75.797,29.8302],[75.8519,29.805],[75.8867,29.7492],[75.9569,29.7386],[76.0439,29.7582],[76.0844,29.8021],[76.2256,29.8691],[76.1933,29.9011],[76.177,29.9455],[76.2219,30.0464],[76.2166,30.0752],[76.2527,30.0886],[76.2058,30.113],[76.2139,30.1375],[76.3081,30.1059],[76.3268,30.1119],[76.3389,30.1412],[76.3735,30.117],[76.394,30.1494],[76.3878,30.18],[76.4093,30.1859],[76.4546,30.1016],[76.5314,30.084],[76.6248,30.1428],[76.6415,30.198],[76.5908,30.2467],[76.5453,30.2178],[76.5391,30.2451],[76.7297,30.3496],[76.739,30.3666],[76.7164,30.3812],[76.7276,30.4201],[76.8294,30.4271],[76.8692,30.3624],[76.9004,30.372],[76.9015,30.5988],[76.8866,30.6338],[76.8607,30.6452],[76.8513,30.6816],[76.8273,30.6807],[76.8117,30.7777],[76.8352,30.8359],[76.8019,30.8562],[76.7682,30.9076],[76.8164,30.9328]]]}}]}